{
    "links": {
        "self": "http://www.neowsapp.com/rest/v1/neo/3556207?api_key=iIulBulltgU6a56xZRHN4H3l9WmuAYTsLGpBGhQ2"
    },
    "id": "3556207",
    "neo_reference_id": "3556207",
    "name": "(2011 CR1)",
    "designation": "2011 CR1",
    "nasa_jpl_url": "http://ssd.jpl.nasa.gov/sbdb.cgi?sstr=3556207",
    "absolute_magnitude_h": 26.5,
    "estimated_diameter": {
        "kilometers": {
            "estimated_diameter_min": 0.0133215567,
            "estimated_diameter_max": 0.0297879063
        },
        "meters": {
            "estimated_diameter_min": 13.3215566698,
            "estimated_diameter_max": 29.7879062798
        },
        "miles": {
            "estimated_diameter_min": 0.008277629,
            "estimated_diameter_max": 0.0185093411
        },
        "feet": {
            "estimated_diameter_min": 43.7058959846,
            "estimated_diameter_max": 97.7293544391
        }
    },
    "is_potentially_hazardous_asteroid": false,
    "close_approach_data": [
        {
            "close_approach_date": "2011-01-29",
            "close_approach_date_full": "2011-Jan-29 16:47",
            "epoch_date_close_approach": 1296319620000,
            "relative_velocity": {
                "kilometers_per_second": "4.8951804636",
                "kilometers_per_hour": "17622.6496690384",
                "miles_per_hour": "10950.0291790756"
            },
            "miss_distance": {
                "astronomical": "0.0276502686",
                "lunar": "10.7559544854",
                "kilometers": "4136421.287487882",
                "miles": "2570253.0038294916"
            },
            "orbiting_body": "Earth"
        },
        {
            "close_approach_date": "2043-03-06",
            "close_approach_date_full": "2043-Mar-06 14:38",
            "epoch_date_close_approach": 2309265480000,
            "relative_velocity": {
                "kilometers_per_second": "14.1393061255",
                "kilometers_per_hour": "50901.5020519552",
                "miles_per_hour": "31628.2138722274"
            },
            "miss_distance": {
                "astronomical": "0.3180397201",
                "lunar": "123.7174511189",
                "kilometers": "47578064.702356187",
                "miles": "29563638.5219099006"
            },
            "orbiting_body": "Earth"
        },
        {
            "close_approach_date": "2044-11-29",
            "close_approach_date_full": "2044-Nov-29 02:36",
            "epoch_date_close_approach": 2363999760000,
            "relative_velocity": {
                "kilometers_per_second": "15.2055292978",
                "kilometers_per_hour": "54739.9054719374",
                "miles_per_hour": "34013.2484861602"
            },
            "miss_distance": {
                "astronomical": "0.359924009",
                "lunar": "140.010439501",
                "kilometers": "53843865.10826083",
                "miles": "33457026.355346254"
            },
            "orbiting_body": "Earth"
        }
    ],
    "orbital_data": {
        "orbit_id": "10",
        "orbit_determination_date": "2017-04-06 08:54:39",
        "first_observation_date": "2011-02-04",
        "last_observation_date": "2011-02-25",
        "data_arc_in_days": 21,
        "observations_used": 41,
        "orbit_uncertainty": "7",
        "minimum_orbit_intersection": ".025352",
        "jupiter_tisserand_invariant": "4.423",
        "epoch_osculation": "2459000.5",
        "eccentricity": ".3432639039735864",
        "semi_major_axis": "1.527107484694225",
        "inclination": "3.648272492269833",
        "ascending_node_longitude": "137.1919833783436",
        "orbital_period": "689.2913610344442",
        "perihelion_distance": "1.002906607710801",
        "perihelion_argument": "338.8535169495101",
        "aphelion_distance": "2.051308361677648",
        "perihelion_time": "2459026.695928033746",
        "mean_anomaly": "346.3185082169088",
        "mean_motion": ".5222755141740572",
        "equinox": "J2000",
        "orbit_class": {
            "orbit_class_type": "APO",
            "orbit_class_description": "Near-Earth asteroid orbits which cross the Earth’s orbit similar to that of 1862 Apollo",
            "orbit_class_range": "a (semi-major axis) > 1.0 AU; q (perihelion) < 1.017 AU"
        }
    },
    "is_sentry_object": false
}